[{"OBJECT_NAME":"STARLINK-34546","OBJECT_ID":"2025-142Y","EPOCH":"2026-03-09T22:44:53.642112","MEAN_MOTION":14.98327234,"ECCENTRICITY":0.00023811,"INCLINATION":70.0017,"RA_OF_ASC_NODE":313.6364,"ARG_OF_PERICENTER":265.7036,"MEAN_ANOMALY":94.3851,"EPHEMERIS_TYPE":0,"CLASSIFICATION_TYPE":"U","NORAD_CAT_ID":64718,"ELEMENT_SET_NO":999,"REV_AT_EPOCH":3969,"BSTAR":0.00011740333,"MEAN_MOTION_DOT":1.308e-5,"MEAN_MOTION_DDOT":0},{"OBJECT_NAME":"COSMOS 2251 DEB","OBJECT_ID":"1993-036APC","EPOCH":"2026-03-07T07:06:21.229920","MEAN_MOTION":14.8796969,"ECCENTRICITY":0.0085938,"INCLINATION":74.0103,"RA_OF_ASC_NODE":270.9975,"ARG_OF_PERICENTER":352.1798,"MEAN_ANOMALY":7.8035,"EPHEMERIS_TYPE":0,"CLASSIFICATION_TYPE":"U","NORAD_CAT_ID":35661,"ELEMENT_SET_NO":999,"REV_AT_EPOCH":89125,"BSTAR":0.00081888,"MEAN_MOTION_DOT":8.012e-5,"MEAN_MOTION_DDOT":0}]
